{
  "norad_id": 58933,
  "name": "STARLINK-31350",
  "history": [
    {
      "epoch": "2026-03-28T15:34:37.810272",
      "apogee_km": 475.88066351742236,
      "perigee_km": 474.5963409483038,
      "latitude_deg": -2.7902060468417296,
      "longitude_deg": 135.6086780799087,
      "semi_major_axis_km": 6853.375502232862,
      "eccentricity": 9.37e-05,
      "inclination_deg": 53.1614,
      "raan_deg": 221.3751,
      "arg_perigee_deg": 75.4892,
      "mean_anomaly_deg": 284.6213,
      "mean_motion_rev_day": 15.30192152
    }
  ]
}